OBJECT_NAME,OBJECT_ID,EPOCH,MEAN_MOTION,ECCENTRICITY,INCLINATION,RA_OF_ASC_NODE,ARG_OF_PERICENTER,MEAN_ANOMALY,EPHEMERIS_TYPE,CLASSIFICATION_TYPE,NORAD_CAT_ID,ELEMENT_SET_NO,REV_AT_EPOCH,BSTAR,MEAN_MOTION_DOT,MEAN_MOTION_DDOT
HYPERVIEW 1G (RS66S),2024-199AP,2026-05-25T02:16:57.529056,15.69877032,.000483,97.2930,23.7469,25.2006,334.9491,0,U,61772,999,13104,.82719E-3,.99686E-3,0
SITRO-AIS 47,2024-199AQ,2026-05-25T03:21:07.626240,15.56438241,.0007245,97.2951,20.7025,31.0805,329.0877,0,U,61773,999,13085,.68736E-3,.4875E-3,0
SITRO-AIS 46,2024-199AR,2026-05-25T03:42:48.532032,15.57910410,.0007189,97.2928,21.0842,34.5668,325.6054,0,U,61774,999,13088,.6424E-3,.48113E-3,0
2024-199AS,2024-199AS,2026-05-25T03:27:54.724896,15.43582084,.0014992,97.3024,17.3753,10.8720,349.2849,0,U,61775,999,13061,.35639E-3,.16006E-3,0
SITRO-AIS 40,2024-199AT,2026-05-25T03:16:58.674144,15.58161721,.0006951,97.2933,21.1186,34.4067,325.7638,0,U,61776,999,13403,.69432E-3,.52526E-3,0
2024-199AU,2024-199AU,2026-05-25T04:33:37.151712,15.44661000,.0014767,97.3026,17.6118,11.1111,349.0460,0,U,61777,999,13063,.38156E-3,.17783E-3,0
SITRO-AIS 39,2024-199AV,2026-05-25T03:24:10.236096,15.55648032,.000744,97.2937,20.3736,30.5929,329.5758,0,U,61778,999,13083,.66181E-3,.45572E-3,0
ALTAIR (RS65S),2024-199AW,2026-05-25T04:36:47.242944,15.36544933,.0013809,97.3065,14.6992,36.3729,323.8451,0,U,61779,999,13358,.26709E-3,.9476E-4,0
SITRO-AIS 37,2024-199AX,2026-05-25T03:52:17.920128,15.56638709,.0007852,97.2969,20.7332,30.9099,329.2617,0,U,61780,999,13085,.64815E-3,.46301E-3,0
ASRTU-1 (AO-123),2024-199AY,2026-05-25T03:51:31.341024,15.35287987,.0014962,97.3036,14.0416,38.0188,322.2108,0,U,61781,999,13039,.21901E-3,.7451E-4,0
SAMSAT-IONOSPHERE (RS75S),2024-199BB,2026-05-25T04:09:37.120320,15.55403577,.000882,97.2987,20.5520,22.1377,338.0257,0,U,61784,999,13398,.63255E-3,.43172E-3,0
RTU MIREA 1 (RS51S),2024-199BC,2026-05-25T04:20:36.144960,15.58357162,.0008376,97.2978,21.2816,19.6156,340.5420,0,U,61785,999,13088,.69809E-3,.53231E-3,0
SITRO-AIS 38,2024-199BD,2026-05-25T02:49:40.332288,15.47464075,.0009949,97.2983,19.1228,28.5381,331.6412,0,U,61786,999,13074,.53824E-3,.27629E-3,0
2024-199BE,2024-199BE,2026-05-25T04:39:26.205120,15.36013147,.0014455,97.3045,14.3448,36.4604,323.7621,0,U,61787,999,13356,.26244E-3,.9154E-4,0
SITRO-AIS 45,2024-199BF,2026-05-25T03:54:47.615040,15.55900090,.0007395,97.2934,20.4672,31.2381,328.9312,0,U,61788,999,13082,.63123E-3,.43857E-3,0
SITRO-AIS 17,2024-199BG,2026-05-25T04:20:01.828608,14.97820028,.0007403,97.3262,346.2284,136.9764,223.2039,0,U,61789,999,12859,.26972E-3,.3118E-4,0
SITRO-AIS 18,2024-199BH,2026-05-25T04:38:14.351424,14.97776917,.0006936,97.3260,346.1899,136.0161,224.1615,0,U,61790,999,12859,.16692E-3,.1907E-4,0
STARLINK-32362,2024-202A,2026-05-25T00:51:44.122176,15.27560155,.0001425,43.0017,155.5941,271.7058,88.3630,0,U,61845,999,8772,.29391E-4,.546E-5,0
STARLINK-32472,2024-202B,2026-05-25T00:14:56.323104,15.27575119,.0001455,43.0012,156.2690,275.3055,84.7631,0,U,61846,999,8712,.78592E-5,-.46E-6,0
STARLINK-32352,2024-202C,2026-05-25T00:44:19.926816,15.27578487,.0001517,43.0014,155.5548,271.2716,88.7962,0,U,61847,999,8714,.44542E-4,.964E-5,0
STARLINK-32427,2024-202D,2026-05-25T01:06:32.827392,15.27567112,.0001266,43.0015,155.6712,271.7601,88.3105,0,U,61848,999,8713,-.37137E-4,-.1283E-4,0
STARLINK-32346,2024-202E,2026-05-25T01:12:05.533056,15.27575956,.0001021,43.0005,155.6995,270.4445,89.6289,0,U,61849,999,8713,-.25537E-5,-.332E-5,0
STARLINK-32330,2024-202F,2026-05-25T01:45:09.454176,15.27579052,.0001107,43.0013,166.2587,276.0366,84.0360,0,U,61850,999,8702,.40154E-4,.843E-5,0
STARLINK-32379,2024-202G,2026-05-25T00:38:46.605984,15.27577083,.0001457,43.0008,155.5256,258.7773,101.2915,0,U,61851,999,8713,.56777E-4,.13E-4,0
STARLINK-32433,2024-202H,2026-05-25T01:50:42.438048,15.27576424,.0001279,43.0009,166.2861,274.7690,85.3015,0,U,61852,999,8702,.39567E-4,.827E-5,0
STARLINK-32394,2024-202J,2026-05-24T18:03:37.237248,15.27581999,.00014564,42.9992,168.1515,264.4800,95.5886,0,U,61853,999,8696,.56703892E-4,.1299E-4,0
STARLINK-32486,2024-202K,2026-05-25T01:59:57.628896,15.27578015,.0000939,43.0012,166.3351,267.4489,92.6255,0,U,61854,999,8702,-.45149E-4,-.1504E-4,0
STARLINK-32391,2024-202L,2026-05-25T02:05:29.923296,15.27582243,.0001328,43.0017,166.3642,288.3288,71.7419,0,U,61855,999,8701,.56178E-5,-.108E-5,0
STARLINK-32483,2024-202M,2026-05-24T12:03:39.237408,15.27581733,.00013269,43.0010,169.7164,273.5852,86.4848,0,U,61856,999,8693,.91806403E-4,.2265E-4,0
STARLINK-32451,2024-202N,2026-05-25T02:22:09.872832,15.27590295,.0001291,43.0003,166.4537,280.2908,79.7798,0,U,61857,999,8702,-.8062E-4,-.2481E-4,0
STARLINK-32556,2024-202P,2026-05-25T02:16:36.748992,15.27568168,.0001321,43.0011,166.4224,277.3165,82.7536,0,U,61858,999,8702,-.10042E-3,-.3023E-4,0
STARLINK-32466,2024-202Q,2026-05-24T18:35:05.584416,15.27581028,.00012326,43.0025,168.3174,289.4169,70.6549,0,U,61859,999,8697,.77671751E-4,.1876E-4,0
STARLINK-32316,2024-202R,2026-05-25T02:02:31.243776,15.27575534,.0001122,43.0011,162.8860,282.5425,77.5301,0,U,61860,999,8705,.15996E-3,.4142E-4,0
STARLINK-32415,2024-202S,2026-05-25T01:02:48.414624,15.27576542,.0001165,43.0017,166.9014,303.0799,56.9940,0,U,61861,999,8700,-.28196E-4,-.1038E-4,0
STARLINK-32393,2024-202T,2026-05-25T00:57:15.410016,15.27574673,.0001465,43.0016,166.8701,291.7662,68.3034,0,U,61862,999,8701,.25191E-4,.431E-5,0
STARLINK-32324,2024-202U,2026-05-25T02:48:04.010112,15.27575601,.0001424,43.0028,166.5896,272.9354,87.1334,0,U,61863,999,8701,.36093E-4,.731E-5,0
STARLINK-32318,2024-202V,2026-05-24T19:06:31.975488,15.27575799,.00017366,43.0031,168.4824,273.5625,86.5028,0,U,61864,999,8697,.54583874E-4,.124E-4,0
STARLINK-32401,2024-202W,2026-05-25T03:02:52.182240,15.27582184,.0001463,43.0004,166.6614,264.5226,95.5458,0,U,61865,999,8702,.91843E-4,.2266E-4,0
STARLINK-32588,2024-202X,2026-05-24T19:02:50.020800,15.27578369,.00015232,43.0027,168.4635,268.8960,91.1717,0,U,61866,999,8697,.39142231E-4,.815E-5,0
STARLINK-32569,2024-202Y,2026-05-25T01:34:15.719808,15.27580587,.0001539,43.0004,167.0570,262.8621,97.2055,0,U,61867,999,8701,.32618E-4,.636E-5,0
2024-203A,2024-203A,2026-05-25T04:30:17.322336,15.29338262,.0012734,97.4205,215.5282,56.0479,304.1970,0,U,61869,999,8544,.45771E-3,.12988E-3,0
2024-203B,2024-203B,2026-05-25T04:36:25.608384,15.29560114,.0012249,97.4185,215.5502,54.7097,305.5287,0,U,61870,999,8545,.50268E-3,.14369E-3,0
2024-203C,2024-203C,2026-05-25T05:02:29.399136,15.24943146,.0013301,97.4248,214.6275,72.2390,288.0299,0,U,61871,999,8536,.45645E-3,.11333E-3,0
2024-203D,2024-203D,2026-05-24T19:38:06.278208,15.26705251,.00122545,97.4263,215.0779,70.0626,290.1931,0,U,61872,999,8535,.43311198E-3,.11332E-3,0
STARLINK-11402 [DTC],2024-204A,2026-05-24T22:12:11.877408,15.69710782,.0001032,53.1592,340.8091,89.8012,270.3124,0,U,61874,999,8947,.115E-4,.805E-5,0
STARLINK-11316 [DTC],2024-204B,2026-05-24T19:15:44.538048,15.69707655,.00008465,53.1585,340.7176,87.8258,272.2857,0,U,61875,999,8887,.10613174E-4,.698E-5,0
STARLINK-11321 [DTC],2024-204D,2026-05-24T20:26:22.591968,15.69720767,.00009303,53.1596,341.0393,90.2497,269.8627,0,U,61877,999,8886,-.8436286E-5,-.1611E-4,0
STARLINK-11314 [DTC],2024-204E,2026-05-24T20:19:18.895008,15.69708080,.00009906,53.1595,341.0057,75.5518,284.5610,0,U,61878,999,8887,.15789626E-4,.1325E-4,0
STARLINK-11324 [DTC],2024-204F,2026-05-24T23:15:37.024128,15.69710092,.000086,53.1583,340.3457,80.5119,279.5996,0,U,61879,999,8889,.26871E-4,.2668E-4,0
STARLINK-11328 [DTC],2024-204G,2026-05-24T20:05:11.642784,15.69703474,.00009775,53.1588,340.9426,65.1221,294.9898,0,U,61880,999,8887,.253179E-6,-.558E-5,0
STARLINK-11329 [DTC],2024-204H,2026-05-24T23:01:29.637984,15.69707540,.0000893,53.1579,340.2778,52.4084,307.7015,0,U,61881,999,8889,.6866E-5,.244E-5,0
STARLINK-11398 [DTC],2024-204J,2026-05-24T19:51:04.394016,15.69696712,.00008035,53.1585,340.8734,51.7996,308.3094,0,U,61882,999,8887,.6844634E-5,.241E-5,0
STARLINK-11383 [DTC],2024-204K,2026-05-24T22:40:18.307776,15.69701625,.0001115,53.1593,340.1787,103.6134,256.5008,0,U,61883,999,8889,.14123E-4,.1122E-4,0
STARLINK-11359 [DTC],2024-204L,2026-05-24T19:43:59.972160,15.69702395,.00010305,53.1601,340.8368,118.0404,242.0718,0,U,61884,999,8887,.1157054E-4,.813E-5,0
STARLINK-11301 [DTC],2024-204M,2026-05-24T19:29:52.080576,15.69708870,.00007788,53.1582,340.7757,92.9347,267.1760,0,U,61885,999,8887,.850999E-5,.443E-5,0
STARLINK-11351 [DTC],2024-204N,2026-05-24T19:22:48.405216,15.69706326,.0000841,53.1579,340.7430,82.8122,277.2991,0,U,61886,999,8887,.7833012E-5,.361E-5,0
STARLINK-32410,2024-204P,2026-05-25T03:01:44.809248,15.34394846,.0001074,53.1596,131.0999,91.7578,268.3548,0,U,61887,999,8681,.29816E-4,.631E-5,0
STARLINK-32377,2024-204Q,2026-05-25T02:58:42.976128,15.34393160,.0001215,53.1603,131.0850,93.5896,266.5246,0,U,61888,999,8680,.3192E-4,.702E-5,0
STARLINK-32292,2024-204R,2026-05-25T03:16:53.950656,15.34387446,.0001159,53.1602,131.1625,87.5306,272.5829,0,U,61889,999,8681,.36842E-4,.868E-5,0
STARLINK-32501,2024-204S,2026-05-25T05:11:54.290112,15.34396102,.0001043,53.1619,130.9506,93.1634,266.9488,0,U,61890,999,8682,-.18443E-4,-.999E-5,0
STARLINK-32383,2024-204T,2026-05-25T03:29:01.036032,15.34385687,.0001236,53.1609,131.2131,92.7689,267.3455,0,U,61891,999,8681,.13506E-4,.8E-6,0
STARLINK-32239,2024-204U,2026-05-25T02:38:46.140000,15.30195323,.000122,53.1594,132.4136,79.7488,280.3651,0,U,61892,999,8679,.43594E-4,.932E-5,0
STARLINK-32489,2024-204V,2026-05-25T02:49:37.939008,15.34401632,.0000977,53.1595,131.0459,105.2807,254.8304,0,U,61893,999,8680,-.10554E-4,-.733E-5,0
2024-205A,2024-205A,2026-05-25T05:05:49.807392,15.11511329,.0015438,97.4134,215.9821,232.4733,127.5095,0,U,61894,999,8473,.46073E-3,.7765E-4,0
2024-205B,2024-205B,2026-05-25T03:55:57.918720,15.29857601,.0011682,97.4137,222.8623,115.7559,244.4889,0,U,61895,999,8516,.43365E-3,.12494E-3,0
